NORAD_CAT_ID,OBJECT_NAME,OBJECT_TYPE,EPOCH,MEAN_MOTION,ECCENTRICITY,INCLINATION,RA_OF_ASC_NODE,ARG_OF_PERICENTER,MEAN_ANOMALY,BSTAR,MEAN_MOTION_DOT,MEAN_MOTION_DDOT,TLE_LINE0,TLE_LINE1,TLE_LINE2,SEMIMAJOR_AXIS,PERIOD,APOGEE,PERIGEE,DECAYED
53777.0,STARLINK-4664,PAYLOAD,2023-01-16 06:48:09,15.08861664,0.0002265,53.2183,29.6677,62.3189,297.8033,0.00080115,0.00012493,0.0,0 STARLINK-4664,1 53777U 22111E   23016.28343991  .00012493  00000-0  80115-3 0  9994,2 53777  53.2183  29.6677 0002265  62.3189 297.8033 15.08861664 19517,6917.814,95.436,541.246,538.112,0.0
53777.0,STARLINK-4664,PAYLOAD,2023-01-16 09:58:55,15.08881149,0.0002072,53.2177,29.0724,62.8159,297.3044,0.001469,0.00023195,0.0,0 STARLINK-4664,1 53777U 22111E   23016.41591497  .00023195  00000-0  14690-2 0  9990,2 53777  53.2177  29.0724 0002072  62.8159 297.3044 15.08881149 19534,6917.755,95.435,541.053,538.186,0.0
53777.0,STARLINK-4664,PAYLOAD,2023-01-16 17:55:50,15.08846027,0.0001492,53.2182,27.5873,75.8691,284.2467,0.00017741,2.537e-05,0.0,0 STARLINK-4664,1 53777U 22111E   23016.74711799  .00002537  00000-0  17741-3 0  9993,2 53777  53.2182  27.5873 0001492  75.8691 284.2467 15.08846027 20394,6917.861999999999,95.437,540.759,538.695,0.0
53777.0,STARLINK-4664,PAYLOAD,2023-01-17 06:38:57,15.08812898,0.0001745,53.2179,25.2082,84.3867,275.7324,0.0012538,0.00019708,0.0,0 STARLINK-4664,1 53777U 22111E   23017.27705309  .00019708  00000-0  12538-2 0  9998,2 53777  53.2179  25.2082 0001745  84.3867 275.7324 15.08812898 19662,6917.963000000001,95.439,541.035,538.621,0.0
53777.0,STARLINK-4664,PAYLOAD,2023-01-17 17:46:39,15.08838597,0.0001792,53.2173,23.1252,88.2705,271.8493,0.0020685,0.00032785,0.0,0 STARLINK-4664,1 53777U 22111E   23017.74073800  .00032785  00000-0  20685-2 0  9996,2 53777  53.2173  23.1252 0001792  88.2705 271.8493 15.08838597 20545,6917.885,95.438,540.989,538.51,0.0
53777.0,STARLINK-4664,PAYLOAD,2023-01-18 09:40:30,15.08891975,0.000183,53.2177,20.1527,86.3457,273.7744,0.0027475999999999,0.00043775,0.0,0 STARLINK-4664,1 53777U 22111E   23018.40312778  .00043775  00000-0  27476-2 0  9996,2 53777  53.2177  20.1527 0001830  86.3457 273.7744 15.08891975 19836,6917.722,95.434,540.852,538.321,0.0
53777.0,STARLINK-4664,PAYLOAD,2023-01-19 06:20:30,15.08864456,0.0001459,53.219,16.2882,91.8741,268.2418,0.0015679,0.0002477,0.0,0 STARLINK-4664,1 53777U 22111E   23019.26424307  .00024770  00000-0  15679-2 0  9999,2 53777  53.2190  16.2882 0001459  91.8741 268.2418 15.08864456 19960,6917.806,95.436,540.68,538.661,0.0
53777.0,STARLINK-4664,PAYLOAD,2023-01-20 06:11:18,15.08858116,0.0001554999999999,53.2181,11.826,111.3153,248.8005,0.0020567,0.00032612,0.0,0 STARLINK-4664,1 53777U 22111E   23020.25784895  .00032612  00000-0  20567-2 0  9997,2 53777  53.2181  11.8260 0001555 111.3153 248.8005 15.08858116 20114,6917.825,95.436,540.766,538.614,0.0
53777.0,STARLINK-4664,PAYLOAD,2023-01-21 06:02:04,15.08876573,0.0001486999999999,53.2184,7.3666,98.7637,261.3524,0.0022073,0.00035051,0.0,0 STARLINK-4664,1 53777U 22111E   23021.25144223  .00035051  00000-0  22073-2 0  9997,2 53777  53.2184   7.3666 0001487  98.7637 261.3524 15.08876573 20265,6917.769,95.435,540.6619999999999,538.605,0.0
53777.0,STARLINK-4664,PAYLOAD,2023-01-21 15:34:23,15.08848175,0.0002536,53.2194,5.5807,92.3072,267.8211,0.0010209,0.00016001,0.0,0 STARLINK-4664,1 53777U 22111E   23021.64888441  .00016001  00000-0  10209-2 0  9999,2 53777  53.2194   5.5807 0002536  92.3072 267.8211 15.08848175 20320,6917.855,95.437,541.475,537.966,0.0
53777.0,STARLINK-4664,PAYLOAD,2023-01-22 05:52:51,15.08847205,0.0001389,53.2188,2.9087,114.106,246.0078,0.00021644,3.159e-05,0.0,0 STARLINK-4664,1 53777U 22111E   23022.24503915  .00003159  00000-0  21644-3 0  9992,2 53777  53.2188   2.9087 0001389 114.1060 246.0078 15.08847205 20412,6917.858,95.437,540.684,538.762,0.0
53777.0,STARLINK-4664,PAYLOAD,2023-01-22 15:25:10,15.08839961,0.0001437,53.2187,1.12,84.2412,275.8744,0.0004346,6.635e-05,0.0,0 STARLINK-4664,1 53777U 22111E   23022.64248346  .00006635  00000-0  43460-3 0  9992,2 53777  53.2187   1.1200 0001437  84.2412 275.8744 15.08839961 20477,6917.880999999999,95.438,540.74,538.751,0.0
53777.0,STARLINK-4664,PAYLOAD,2023-01-22 23:22:06,15.08832692,0.0001249,53.218,359.6339,81.0947,279.0186,0.00036625,5.545e-05,0.0,0 STARLINK-4664,1 53777U 22111E   23022.97368750  .00005545  00000-0  36625-3 0  9994,2 53777  53.2180 359.6339 0001249  81.0947 279.0186 15.08832692 20529,6917.903,95.438,540.632,538.904,0.0
53777.0,STARLINK-4664,PAYLOAD,2023-01-23 07:19:02,15.08854581,0.0001196,53.2181,358.1474,79.8091,280.3036,0.0012564,0.00019772,0.0,0 STARLINK-4664,1 53777U 22111E   23023.30488571  .00019772  00000-0  12564-2 0  9998,2 53777  53.2181 358.1474 0001196  79.8091 280.3036 15.08854581 20575,6917.835999999999,95.437,540.528,538.873,0.0
53777.0,STARLINK-4664,PAYLOAD,2023-01-23 15:15:58,15.08841514,9.55e-05,53.2187,356.6614,93.1237,266.9865,0.0011117,0.0001745,0.0,0 STARLINK-4664,1 53777U 22111E   23023.63609010  .00017450  00000-0  11117-2 0  9991,2 53777  53.2187 356.6614 0000955  93.1237 266.9865 15.08841514 20621,6917.876,95.437,540.401,539.08,0.0
53777.0,STARLINK-4664,PAYLOAD,2023-01-24 05:34:26,15.08849072,0.0001196,53.218,353.9848,121.1345,238.9764,0.0016442999999999,0.00025984,0.0,0 STARLINK-4664,1 53777U 22111E   23024.23225199  .00025984  00000-0  16443-2 0  9998,2 53777  53.2180 353.9848 0001196 121.1345 238.9764 15.08849072 20717,6917.853,95.437,540.545,538.89,0.0
53777.0,STARLINK-4664,PAYLOAD,2023-01-25 03:49:51,15.08853507,0.0001334,53.2179,349.8217,88.0086,272.1059,0.0011649,0.00018307,0.0,0 STARLINK-4664,1 53777U 22111E   23025.15961923  .00018307  00000-0  11649-2 0  9996,2 53777  53.2179 349.8217 0001334  88.0086 272.1059 15.08853507 20856,6917.839,95.437,540.627,538.781,0.0
53777.0,STARLINK-4664,PAYLOAD,2023-01-25 07:00:37,15.08848002,0.000136,53.2182,349.2269,86.9814,273.1333,0.0011565,0.0001817,0.0,0 STARLINK-4664,1 53777U 22111E   23025.29209978  .00018170  00000-0  11565-2 0  9991,2 53777  53.2182 349.2269 0001360  86.9814 273.1333 15.08848002 21688,6917.856,95.437,540.6619999999999,538.78,0.0
53777.0,STARLINK-4664,PAYLOAD,2023-01-25 14:57:33,15.08837384,0.0001761,53.2191,347.7372,111.4564,248.6616,0.00068889,0.00010692,0.0,0 STARLINK-4664,1 53777U 22111E   23025.62330135  .00010692  00000-0  68889-3 0  9991,2 53777  53.2191 347.7372 0001761 111.4564 248.6616 15.08837384 20925,6917.888000000001,95.438,540.972,538.535,0.0
53777.0,STARLINK-4664,PAYLOAD,2023-01-26 03:40:38,15.08855339,0.0001503,53.2185,345.3615,100.4389,259.6773,0.0012788,0.00020131,0.0,0 STARLINK-4664,1 53777U 22111E   23026.15321983  .00020131  00000-0  12788-2 0  9996,2 53777  53.2185 345.3615 0001503 100.4389 259.6773 15.08855339 21814,6917.834,95.437,540.738,538.659,0.0
53777.0,STARLINK-4664,PAYLOAD,2023-01-27 03:31:24,15.08855997,0.0001359,53.2187,340.901,111.9881,248.1255,0.00073937,0.00011504,0.0,0 STARLINK-4664,1 53777U 22111E   23027.14681682  .00011504  00000-0  73937-3 0  9999,2 53777  53.2187 340.9010 0001359 111.9881 248.1255 15.08855997 21154,6917.831,95.437,540.637,538.756,0.0
53777.0,STARLINK-4664,PAYLOAD,2023-01-27 06:42:11,15.08855819,0.0001284,53.2187,340.3072,105.1692,254.9442,0.0011611,0.00018247,0.0,0 STARLINK-4664,1 53777U 22111E   23027.27929707  .00018247  00000-0  11611-2 0  9997,2 53777  53.2187 340.3072 0001284 105.1692 254.9442 15.08855819 21985,6917.831999999999,95.437,540.585,538.809,0.0
53777.0,STARLINK-4664,PAYLOAD,2023-01-28 04:57:35,15.08842053,0.000129,53.2189,336.1431,102.8078,257.3058,0.0009523,0.00014901,0.0,0 STARLINK-4664,1 53777U 22111E   23028.20666306  .00014901  00000-0  95230-3 0  9997,2 53777  53.2189 336.1431 0001290 102.8078 257.3058 15.08842053 21311,6917.874,95.437,540.632,538.847,0.0
53777.0,STARLINK-4664,PAYLOAD,2023-01-28 06:32:58,15.08844237,0.0001275,53.2191,335.8462,101.1242,258.9894,0.0010327,0.00016187,0.0,0 STARLINK-4664,1 53777U 22111E   23028.27290312  .00016187  00000-0  10327-2 0  9995,2 53777  53.2191 335.8462 0001275 101.1242 258.9894 15.08844237 22134,6917.867,95.437,540.614,538.85,0.0
53777.0,STARLINK-4664,PAYLOAD,2023-01-29 06:23:45,15.08846313,0.0001177,53.2183,331.3864,93.6047,266.508,0.00063551,9.842e-05,0.0,0 STARLINK-4664,1 53777U 22111E   23029.26650336  .00009842  00000-0  63551-3 0  9999,2 53777  53.2183 331.3864 0001177  93.6047 266.5080 15.08846313 21476,6917.861,95.437,540.54,538.912,0.0
53777.0,STARLINK-4664,PAYLOAD,2023-01-30 06:14:32,15.08846459,0.0001198,53.2184,326.9266,83.7415,276.3713,0.00020233,2.934e-05,0.0,0 STARLINK-4664,1 53777U 22111E   23030.26010325  .00002934  00000-0  20233-3 0  9994,2 53777  53.2184 326.9266 0001198  83.7415 276.3713 15.08846459 21625,6917.861,95.437,540.554,538.897,0.0
53777.0,STARLINK-4664,PAYLOAD,2023-01-30 11:00:42,15.0884217,0.0001188,53.218,326.0337,89.3475,270.7654,0.00010625,1.404e-05,0.0,0 STARLINK-4664,1 53777U 22111E   23030.45882374  .00001404  00000-0  10625-3 0  9991,2 53777  53.2180 326.0337 0001188  89.3475 270.7654 15.08842170 22469,6917.874,95.437,540.561,538.917,0.0
53777.0,STARLINK-4664,PAYLOAD,2023-01-31 04:29:56,15.08851067,0.0001239,53.2181,322.7633,81.1273,278.9859,0.00022004,3.217e-05,0.0,0 STARLINK-4664,1 53777U 22111E   23031.18746026  .00003217  00000-0  22004-3 0  9993,2 53777  53.2181 322.7633 0001239  81.1273 278.9859 15.08851067 22579,6917.847,95.437,540.569,538.854,0.0
53777.0,STARLINK-4664,PAYLOAD,2023-01-31 18:48:25,15.08845283,0.0001513,53.2182,320.0886,71.3829,288.7327,0.00016241,2.298e-05,0.0,0 STARLINK-4664,1 53777U 22111E   23031.78362277  .00002298  00000-0  16241-3 0  9995,2 53777  53.2182 320.0886 0001513  71.3829 288.7327 15.08845283 21856,6917.864,95.437,540.776,538.683,0.0
